[{"OBJECT_NAME":"STARLINK-3266","OBJECT_ID":"2021-125AR","EPOCH":"2026-03-09T16:58:33.424320","MEAN_MOTION":15.0883895,"ECCENTRICITY":0.00013751,"INCLINATION":53.2172,"RA_OF_ASC_NODE":239.044,"ARG_OF_PERICENTER":90.0677,"MEAN_ANOMALY":270.0473,"EPHEMERIS_TYPE":0,"CLASSIFICATION_TYPE":"U","NORAD_CAT_ID":50195,"ELEMENT_SET_NO":999,"REV_AT_EPOCH":23673,"BSTAR":-7.102846e-6,"MEAN_MOTION_DOT":-4.01e-6,"MEAN_MOTION_DDOT":0},{"OBJECT_NAME":"OBJECT BE","OBJECT_ID":"2018-099BE","EPOCH":"2026-03-09T15:10:24.322944","MEAN_MOTION":15.09972337,"ECCENTRICITY":0.0006427,"INCLINATION":97.4031,"RA_OF_ASC_NODE":111.7891,"ARG_OF_PERICENTER":340.4925,"MEAN_ANOMALY":19.6058,"EPHEMERIS_TYPE":0,"CLASSIFICATION_TYPE":"U","NORAD_CAT_ID":43810,"ELEMENT_SET_NO":999,"REV_AT_EPOCH":39698,"BSTAR":0.00027209,"MEAN_MOTION_DOT":4.358e-5,"MEAN_MOTION_DDOT":0}]
